STARLINK-1007           
1 44713U 19074A   23320.52807302 -.00000296  00000+0 -97431-6 0  9995
2 44713  53.0562  16.2043 0001520  76.0017 284.1140 15.06399492221516
STARLINK-1008           
1 44714U 19074B   23320.57324361  .00001433  00000+0  11502-3 0  9994
2 44714  53.0574  16.0041 0001473 106.5760 253.5391 15.06411301221520
STARLINK-1009           
1 44715U 19074C   23320.36315686  .00006674  00000+0  46641-3 0  9996
2 44715  53.0544  16.9528 0001454  94.8984 265.2171 15.06407549221483
STARLINK-1010           
1 44716U 19074D   23320.38157979  .00001528  00000+0  12141-3 0  9999
2 44716  53.0566  16.8695 0001517  92.8962 267.2201 15.06406658221471
STARLINK-1011           
1 44717U 19074E   23320.37973747  .00000540  00000+0  55193-4 0  9996
2 44717  53.0556  36.8731 0001256  91.1882 268.9251 15.06373148221219
STARLINK-1012           
1 44718U 19074F   23320.35209686  .00003316  00000+0  24137-3 0  9996
2 44718  53.0565  17.0024 0001503  96.1981 263.9179 15.06407057221486